start=new Date('2022-07-26T00:00:00.000Z').valueOf();
sats=[{"REF_FRAME":"TEME","NORAD_CAT_ID":"51973","RCS_SIZE":"LARGE","ECCENTRICITY":"0.00020250","INCLINATION":"53.2148","PERIAPSIS":"538.363","EPOCH":"2022-07-25T22:00:00.999936","REV_AT_EPOCH":"130","MEAN_MOTION":"15.08833971","OBJECT_ID":"2022-025T","GP_ID":"208864851","PERIOD":"95.438","COUNTRY_CODE":"US","BSTAR":"0.00218720000000","SITE":"AFETR","LAUNCH_DATE":"2022-03-09","CENTER_NAME":"EARTH","MEAN_ANOMALY":"130.6133","RA_OF_ASC_NODE":"207.2634","MEAN_ELEMENT_THEORY":"SGP4","MEAN_MOTION_DOT":"0.00034688","OBJECT_TYPE":"PAYLOAD","TLE_LINE2":"2 51973  53.2148 207.2634 0002025  52.6801 130.6133 15.08833971  1301","FILE":"3521711","APOAPSIS":"541.165","ELEMENT_SET_NO":"999","CLASSIFICATION_TYPE":"U","DECAY_DATE":null,"SEMIMAJOR_AXIS":"6917.899","EPHEMERIS_TYPE":"0","MEAN_MOTION_DDOT":"0.0000000000000","TLE_LINE1":"1 51973U 22025T   22206.91667824  .00034688  00000-0  21872-2 0  9992","ARG_OF_PERICENTER":"52.6801","OBJECT_NAME":"STARLINK-3679","TIME_SYSTEM":"UTC"},{"TLE_LINE1":"1 51974U 22025U   22206.91667824  .00037166  00000-0  23416-2 0  9993","TIME_SYSTEM":"UTC","ARG_OF_PERICENTER":"48.9834","OBJECT_NAME":"STARLINK-3672","MEAN_MOTION_DDOT":"0.0000000000000","ELEMENT_SET_NO":"999","APOAPSIS":"541.259","CLASSIFICATION_TYPE":"U","FILE":"3521711","DECAY_DATE":null,"EPHEMERIS_TYPE":"0","SEMIMAJOR_AXIS":"6917.911","MEAN_ANOMALY":"194.3324","OBJECT_TYPE":"PAYLOAD","TLE_LINE2":"2 51974  53.2138 207.2700 0002143  48.9834 194.3324 15.08829829  1306","MEAN_ELEMENT_THEORY":"SGP4","RA_OF_ASC_NODE":"207.2700","MEAN_MOTION_DOT":"0.00037166","BSTAR":"0.00234160000000","SITE":"AFETR","CENTER_NAME":"EARTH","LAUNCH_DATE":"2022-03-09","PERIOD":"95.438","COUNTRY_CODE":"US","MEAN_MOTION":"15.08829829","REV_AT_EPOCH":"130","OBJECT_ID":"2022-025U","EPOCH":"2022-07-25T22:00:00.999936","GP_ID":"208863599","RCS_SIZE":"LARGE","ECCENTRICITY":"0.00021430","REF_FRAME":"TEME","NORAD_CAT_ID":"51974","PERIAPSIS":"538.294","INCLINATION":"53.2138"},{"ELEMENT_SET_NO":"999","APOAPSIS":"541.119","CLASSIFICATION_TYPE":"U","FILE":"3521711","DECAY_DATE":null,"SEMIMAJOR_AXIS":"6917.971","EPHEMERIS_TYPE":"0","MEAN_ANOMALY":"189.5138","OBJECT_TYPE":"PAYLOAD","TLE_LINE2":"2 51975  53.2164 207.2637 0001855  48.6140 189.5138 15.08810388  1300","MEAN_ELEMENT_THEORY":"SGP4","RA_OF_ASC_NODE":"207.2637","MEAN_MOTION_DOT":"0.00036760","TLE_LINE1":"1 51975U 22025V   22206.91667824  .00036760  00000-0  23176-2 0  9996","TIME_SYSTEM":"UTC","OBJECT_NAME":"STARLINK-3674","ARG_OF_PERICENTER":"48.6140","MEAN_MOTION_DDOT":"0.0000000000000","MEAN_MOTION":"15.08810388","REV_AT_EPOCH":"130","OBJECT_ID":"2022-025V","EPOCH":"2022-07-25T22:00:00.999936","GP_ID":"208863849","RCS_SIZE":"LARGE","ECCENTRICITY":"0.00018550","REF_FRAME":"TEME","NORAD_CAT_ID":"51975","INCLINATION":"53.2164","PERIAPSIS":"538.553","SITE":"AFETR","BSTAR":"0.00231760000000","CENTER_NAME":"EARTH","LAUNCH_DATE":"2022-03-09","PERIOD":"95.439","COUNTRY_CODE":"US"},{"TIME_SYSTEM":"UTC","ARG_OF_PERICENTER":"49.9967","OBJECT_NAME":"STARLINK-3663","TLE_LINE1":"1 51976U 22025W   22206.91667824  .00039312  00000-0  24755-2 0  9997","MEAN_MOTION_DDOT":"0.0000000000000","DECAY_DATE":null,"SEMIMAJOR_AXIS":"6917.932","EPHEMERIS_TYPE":"0","APOAPSIS":"541.181","ELEMENT_SET_NO":"999","CLASSIFICATION_TYPE":"U","FILE":"3521711","TLE_LINE2":"2 51976  53.2178 217.2771 0002000  49.9967 198.3423 15.08823112  1304","OBJECT_TYPE":"PAYLOAD","MEAN_ELEMENT_THEORY":"SGP4","RA_OF_ASC_NODE":"217.2771","MEAN_MOTION_DOT":"0.00039312","MEAN_ANOMALY":"198.3423","CENTER_NAME":"EARTH","LAUNCH_DATE":"2022-03-09","BSTAR":"0.00247550000000","SITE":"AFETR","COUNTRY_CODE":"US","PERIOD":"95.439","GP_ID":"208864601","MEAN_MOTION":"15.08823112","REV_AT_EPOCH":"130","OBJECT_ID":"2022-025W","EPOCH":"2022-07-25T22:00:00.999936","INCLINATION":"53.2178","PERIAPSIS":"538.413","RCS_SIZE":"LARGE","ECCENTRICITY":"0.00020000","REF_FRAME":"TEME","NORAD_CAT_ID":"51976"},{"SEMIMAJOR_AXIS":"6917.843","EPHEMERIS_TYPE":"0","DECAY_DATE":null,"APOAPSIS":"540.919","CLASSIFICATION_TYPE":"U","ELEMENT_SET_NO":"999","FILE":"3521711","TLE_LINE2":"2 51977  53.2150 197.2850 0001750  58.1410 200.1786 15.08852236  1309","OBJECT_TYPE":"PAYLOAD","MEAN_MOTION_DOT":"-0.00011339","RA_OF_ASC_NODE":"197.2850","MEAN_ELEMENT_THEORY":"SGP4","MEAN_ANOMALY":"200.1786","TIME_SYSTEM":"UTC","OBJECT_NAME":"STARLINK-3660","ARG_OF_PERICENTER":"58.1410","TLE_LINE1":"1 51977U 22025X   22206.91667824 -.00011339  00000-0 -69521-3 0  9990","MEAN_MOTION_DDOT":"0.0000000000000","GP_ID":"208864352","OBJECT_ID":"2022-025X","MEAN_MOTION":"15.08852236","REV_AT_EPOCH":"130","EPOCH":"2022-07-25T22:00:00.999936","INCLINATION":"53.2150","PERIAPSIS":"538.497","RCS_SIZE":"LARGE","ECCENTRICITY":"0.00017500","NORAD_CAT_ID":"51977","REF_FRAME":"TEME","CENTER_NAME":"EARTH","LAUNCH_DATE":"2022-03-09","SITE":"AFETR","BSTAR":"-0.00069521000000","COUNTRY_CODE":"US","PERIOD":"95.437"},{"TLE_LINE1":"1 51978U 22025Y   22206.91667824  .00045040  00000-0  28324-2 0  9990","OBJECT_NAME":"STARLINK-3666","ARG_OF_PERICENTER":"59.0709","TIME_SYSTEM":"UTC","MEAN_MOTION_DDOT":"0.0000000000000","FILE":"3521711","ELEMENT_SET_NO":"999","APOAPSIS":"540.919","CLASSIFICATION_TYPE":"U","DECAY_DATE":null,"SEMIMAJOR_AXIS":"6917.974","EPHEMERIS_TYPE":"0","MEAN_ANOMALY":"249.2472","MEAN_ELEMENT_THEORY":"SGP4","RA_OF_ASC_NODE":"217.2689","MEAN_MOTION_DOT":"0.00045040","OBJECT_TYPE":"PAYLOAD","TLE_LINE2":"2 51978  53.2148 217.2689 0001561  59.0709 249.2472 15.08809501  1304","BSTAR":"0.00283240000000","SITE":"AFETR","LAUNCH_DATE":"2022-03-09","CENTER_NAME":"EARTH","PERIOD":"95.439","COUNTRY_CODE":"US","EPOCH":"2022-07-25T22:00:00.999936","MEAN_MOTION":"15.08809501","REV_AT_EPOCH":"130","OBJECT_ID":"2022-025Y","GP_ID":"208863100","REF_FRAME":"TEME","NORAD_CAT_ID":"51978","RCS_SIZE":"LARGE","ECCENTRICITY":"0.00015610","INCLINATION":"53.2148","PERIAPSIS":"538.759"},{"GP_ID":"208863350","OBJECT_ID":"2022-025Z","MEAN_MOTION":"15.08809576","REV_AT_EPOCH":"130","EPOCH":"2022-07-25T22:00:00.999936","INCLINATION":"53.2156","PERIAPSIS":"538.265","ECCENTRICITY":"0.00022750","RCS_SIZE":"LARGE","NORAD_CAT_ID":"51979","REF_FRAME":"TEME","CENTER_NAME":"EARTH","LAUNCH_DATE":"2022-03-09","SITE":"AFETR","BSTAR":"0.00238420000000","COUNTRY_CODE":"US","PERIOD":"95.439","EPHEMERIS_TYPE":"0","SEMIMAJOR_AXIS":"6917.973","DECAY_DATE":null,"APOAPSIS":"541.412","ELEMENT_SET_NO":"999","CLASSIFICATION_TYPE":"U","FILE":"3521711","TLE_LINE2":"2 51979  53.2156 217.2811 0002275  51.1093 177.2188 15.08809576  1309","OBJECT_TYPE":"PAYLOAD","MEAN_MOTION_DOT":"0.00037830","RA_OF_ASC_NODE":"217.2811","MEAN_ELEMENT_THEORY":"SGP4","MEAN_ANOMALY":"177.2188","TIME_SYSTEM":"UTC","OBJECT_NAME":"STARLINK-3656","ARG_OF_PERICENTER":"51.1093","TLE_LINE1":"1 51979U 22025Z   22206.91667824  .00037830  00000-0  23842-2 0  9999","MEAN_MOTION_DDOT":"0.0000000000000"},{"DECAY_DATE":null,"SEMIMAJOR_AXIS":"6917.880","EPHEMERIS_TYPE":"0","APOAPSIS":"540.936","ELEMENT_SET_NO":"999","CLASSIFICATION_TYPE":"U","FILE":"3521467","TLE_LINE2":"2 51980  53.2144 217.2704 0001721  59.6581 288.6753 15.08839967 22450","OBJECT_TYPE":"PAYLOAD","RA_OF_ASC_NODE":"217.2704","MEAN_ELEMENT_THEORY":"SGP4","MEAN_MOTION_DOT":"0.00011992","MEAN_ANOMALY":"288.6753","TIME_SYSTEM":"UTC","ARG_OF_PERICENTER":"59.6581","OBJECT_NAME":"STARLINK-3649","TLE_LINE1":"1 51980U 22025AA  22206.91667824  .00011992  00000-0  77028-3 0  9998","MEAN_MOTION_DDOT":"0.0000000000000","GP_ID":"208834807","REV_AT_EPOCH":"2245","MEAN_MOTION":"15.08839967","OBJECT_ID":"2022-025AA","EPOCH":"2022-07-25T22:00:00.999936","PERIAPSIS":"538.555","INCLINATION":"53.2144","RCS_SIZE":"LARGE","ECCENTRICITY":"0.00017210","REF_FRAME":"TEME","NORAD_CAT_ID":"51980","CENTER_NAME":"EARTH","LAUNCH_DATE":"2022-03-09","BSTAR":"0.00077028000000","SITE":"AFETR","COUNTRY_CODE":"US","PERIOD":"95.438"},{"RA_OF_ASC_NODE":"217.3028","MEAN_ELEMENT_THEORY":"SGP4","MEAN_MOTION_DOT":"0.00041511","TLE_LINE2":"2 51981  53.2105 217.3028 0001902  50.3451 217.9769 15.08818336  1303","OBJECT_TYPE":"PAYLOAD","MEAN_ANOMALY":"217.9769","DECAY_DATE":null,"EPHEMERIS_TYPE":"0","SEMIMAJOR_AXIS":"6917.947","FILE":"3521711","APOAPSIS":"541.127","ELEMENT_SET_NO":"999","CLASSIFICATION_TYPE":"U","MEAN_MOTION_DDOT":"0.0000000000000","OBJECT_NAME":"STARLINK-3635","ARG_OF_PERICENTER":"50.3451","TIME_SYSTEM":"UTC","TLE_LINE1":"1 51981U 22025AB  22206.91667824  .00041511  00000-0  26125-2 0  9990","INCLINATION":"53.2105","PERIAPSIS":"538.496","REF_FRAME":"TEME","NORAD_CAT_ID":"51981","ECCENTRICITY":"0.00019020","RCS_SIZE":"LARGE","GP_ID":"208864852","EPOCH":"2022-07-25T22:00:00.999936","REV_AT_EPOCH":"130","MEAN_MOTION":"15.08818336","OBJECT_ID":"2022-025AB","COUNTRY_CODE":"US","PERIOD":"95.439","LAUNCH_DATE":"2022-03-09","CENTER_NAME":"EARTH","SITE":"AFETR","BSTAR":"0.00261250000000"},{"MEAN_ANOMALY":"316.7136","OBJECT_TYPE":"PAYLOAD","TLE_LINE2":"2 51982  53.2149 217.2687 0001676  51.5905 316.7136 15.08816747 22467","RA_OF_ASC_NODE":"217.2687","MEAN_ELEMENT_THEORY":"SGP4","MEAN_MOTION_DOT":"0.00046865","ELEMENT_SET_NO":"999","APOAPSIS":"540.976","CLASSIFICATION_TYPE":"U","FILE":"3521469","DECAY_DATE":null,"EPHEMERIS_TYPE":"0","SEMIMAJOR_AXIS":"6917.951","MEAN_MOTION_DDOT":"0.0000000000000","TLE_LINE1":"1 51982U 22025AC  22206.91667824  .00046865  00000-0  29451-2 0  9993","TIME_SYSTEM":"UTC","ARG_OF_PERICENTER":"51.5905","OBJECT_NAME":"STARLINK-3650","ECCENTRICITY":"0.00016760","RCS_SIZE":"LARGE","REF_FRAME":"TEME","NORAD_CAT_ID":"51982","INCLINATION":"53.2149","PERIAPSIS":"538.657","REV_AT_EPOCH":"2246","MEAN_MOTION":"15.08816747","OBJECT_ID":"2022-025AC","EPOCH":"2022-07-25T22:00:00.999936","GP_ID":"208834829","PERIOD":"95.439","COUNTRY_CODE":"US","BSTAR":"0.00294510000000","SITE":"AFETR","CENTER_NAME":"EARTH","LAUNCH_DATE":"2022-03-09"}];
